{
  "type": "FeatureCollection",
  "features": [
    {
      "type": "Feature",
      "properties": {
        "norad_id": 30640,
        "name": "FENGYUN 1C DEB",
        "group": "fengyun-1c-debris",
        "lat": -59.77348940922146,
        "lon": -145.89571308177702,
        "alt_km": 878.5187996910636,
        "timestamp": "2025-12-04T21:36:16.150639+00:00",
        "meta_object_name": "FENGYUN 1C DEB",
        "meta_object_id": "1999-025ANX",
        "meta_epoch": "2025-12-04T10:53:35.536128",
        "meta_mean_motion": 14.14561513,
        "meta_eccentricity": 0.00814188,
        "meta_inclination": 99.0586,
        "meta_ra_of_asc_node": 49.5431,
        "meta_arg_of_pericenter": 123.7887,
        "meta_mean_anomaly": 4.8591,
        "meta_ephemeris_type": 0,
        "meta_classification_type": "U",
        "meta_norad_cat_id": 30640,
        "meta_element_set_no": 999,
        "meta_rev_at_epoch": 96328,
        "meta_bstar": 0.0034573336,
        "meta_mean_motion_dot": 6.813e-05,
        "meta_mean_motion_ddot": 0,
        "tle_line1": "1 30640U 99025ANX 25338.45388352  .00006813  00000+0  34573-2 0  9998",
        "tle_line2": "2 30640  99.0586  49.5431 0081418 123.7887   4.8591 14.14561513963282"
      },
      "geometry": {
        "type": "Point",
        "coordinates": [
          -145.89571308177702,
          -59.77348940922146
        ]
      }
    },
    {
      "type": "Feature",
      "properties": {
        "norad_id": 30641,
        "name": "FENGYUN 1C DEB",
        "group": "fengyun-1c-debris",
        "lat": 3.493941169771247,
        "lon": 92.95630715288725,
        "alt_km": 548.9980351130926,
        "timestamp": "2025-12-04T21:36:16.150649+00:00",
        "meta_object_name": "FENGYUN 1C DEB",
        "meta_object_id": "1999-025ANY",
        "meta_epoch": "2025-12-03T19:04:58.627200",
        "meta_mean_motion": 14.78845791,
        "meta_eccentricity": 0.01358606,
        "meta_inclination": 98.9415,
        "meta_ra_of_asc_node": 271.1781,
        "meta_arg_of_pericenter": 154.6514,
        "meta_mean_anomaly": 261.2956,
        "meta_ephemeris_type": 0,
        "meta_classification_type": "U",
        "meta_norad_cat_id": 30641,
        "meta_element_set_no": 999,
        "meta_rev_at_epoch": 400,
        "meta_bstar": 0.00071433134,
        "meta_mean_motion_dot": 6.075e-05,
        "meta_mean_motion_ddot": 0,
        "tle_line1": "1 30641U 99025ANY 25337.79512300  .00006075  00000+0  71433-3 0  9994",
        "tle_line2": "2 30641  98.9415 271.1781 0135860 154.6514 261.2956 14.78845791  4007"
      },
      "geometry": {
        "type": "Point",
        "coordinates": [
          92.95630715288725,
          3.493941169771247
        ]
      }
    },
    {
      "type": "Feature",
      "properties": {
        "norad_id": 30646,
        "name": "FENGYUN 1C DEB",
        "group": "fengyun-1c-debris",
        "lat": 65.24480757249913,
        "lon": -19.53781617714255,
        "alt_km": 819.9119778642316,
        "timestamp": "2025-12-04T21:36:16.150659+00:00",
        "meta_object_name": "FENGYUN 1C DEB",
        "meta_object_id": "1999-025APD",
        "meta_epoch": "2025-12-04T14:28:39.764064",
        "meta_mean_motion": 14.09622797,
        "meta_eccentricity": 0.00485953,
        "meta_inclination": 98.6527,
        "meta_ra_of_asc_node": 359.4593,
        "meta_arg_of_pericenter": 55.051,
        "meta_mean_anomaly": 305.5211,
        "meta_ephemeris_type": 0,
        "meta_classification_type": "U",
        "meta_norad_cat_id": 30646,
        "meta_element_set_no": 999,
        "meta_rev_at_epoch": 96490,
        "meta_bstar": 0.001043124,
        "meta_mean_motion_dot": 1.806e-05,
        "meta_mean_motion_ddot": 0,
        "tle_line1": "1 30646U 99025APD 25338.60323801  .00001806  00000+0  10431-2 0  9993",
        "tle_line2": "2 30646  98.6527 359.4593 0048595  55.0510 305.5211 14.09622797964905"
      },
      "geometry": {
        "type": "Point",
        "coordinates": [
          -19.53781617714255,
          65.24480757249913
        ]
      }
    },
    {
      "type": "Feature",
      "properties": {
        "norad_id": 30647,
        "name": "FENGYUN 1C DEB",
        "group": "fengyun-1c-debris",
        "lat": -68.93810167945325,
        "lon": -65.39446155334963,
        "alt_km": 712.2997058872706,
        "timestamp": "2025-12-04T21:36:16.150669+00:00",
        "meta_object_name": "FENGYUN 1C DEB",
        "meta_object_id": "1999-025APE",
        "meta_epoch": "2025-12-02T19:03:39.332736",
        "meta_mean_motion": 14.56138584,
        "meta_eccentricity": 0.00287565,
        "meta_inclination": 98.9885,
        "meta_ra_of_asc_node": 268.0697,
        "meta_arg_of_pericenter": 206.5245,
        "meta_mean_anomaly": 208.7008,
        "meta_ephemeris_type": 0,
        "meta_classification_type": "U",
        "meta_norad_cat_id": 30647,
        "meta_element_set_no": 999,
        "meta_rev_at_epoch": 97844,
        "meta_bstar": 0.0032090163,
        "meta_mean_motion_dot": 0.00014215,
        "meta_mean_motion_ddot": 0,
        "tle_line1": "1 30647U 99025APE 25336.79420524  .00014215  00000+0  32090-2 0  9995",
        "tle_line2": "2 30647  98.9885 268.0697 0028756 206.5245 208.7008 14.56138584978441"
      },
      "geometry": {
        "type": "Point",
        "coordinates": [
          -65.39446155334963,
          -68.93810167945325
        ]
      }
    },
    {
      "type": "Feature",
      "properties": {
        "norad_id": 30648,
        "name": "FENGYUN 1C DEB",
        "group": "fengyun-1c-debris",
        "lat": -47.585909169586365,
        "lon": 82.96695500139494,
        "alt_km": 762.7303989265574,
        "timestamp": "2025-12-04T21:36:16.150680+00:00",
        "meta_object_name": "FENGYUN 1C DEB",
        "meta_object_id": "1999-025APF",
        "meta_epoch": "2025-12-04T05:29:32.588160",
        "meta_mean_motion": 14.47895212,
        "meta_eccentricity": 0.00349614,
        "meta_inclination": 98.6435,
        "meta_ra_of_asc_node": 72.6964,
        "meta_arg_of_pericenter": 152.7552,
        "meta_mean_anomaly": 261.5844,
        "meta_ephemeris_type": 0,
        "meta_classification_type": "U",
        "meta_norad_cat_id": 30648,
        "meta_element_set_no": 999,
        "meta_rev_at_epoch": 97743,
        "meta_bstar": 0.0058313703,
        "meta_mean_motion_dot": 0.00021795,
        "meta_mean_motion_ddot": 0,
        "tle_line1": "1 30648U 99025APF 25338.22884940  .00021795  00000+0  58314-2 0  9990",
        "tle_line2": "2 30648  98.6435  72.6964 0034961 152.7552 261.5844 14.47895212977435"
      },
      "geometry": {
        "type": "Point",
        "coordinates": [
          82.96695500139494,
          -47.585909169586365
        ]
      }
    },
    {
      "type": "Feature",
      "properties": {
        "norad_id": 30649,
        "name": "FENGYUN 1C DEB",
        "group": "fengyun-1c-debris",
        "lat": -80.22338516691825,
        "lon": -170.04137171767564,
        "alt_km": 789.6545876156133,
        "timestamp": "2025-12-04T21:36:16.150690+00:00",
        "meta_object_name": "FENGYUN 1C DEB",
        "meta_object_id": "1999-025APG",
        "meta_epoch": "2025-12-04T05:32:08.742336",
        "meta_mean_motion": 14.29395425,
        "meta_eccentricity": 0.00513723,
        "meta_inclination": 98.81,
        "meta_ra_of_asc_node": 73.4459,
        "meta_arg_of_pericenter": 195.384,
        "meta_mean_anomaly": 226.4513,
        "meta_ephemeris_type": 0,
        "meta_classification_type": "U",
        "meta_norad_cat_id": 30649,
        "meta_element_set_no": 999,
        "meta_rev_at_epoch": 96942,
        "meta_bstar": 0.0046976648,
        "meta_mean_motion_dot": 0.00012122,
        "meta_mean_motion_ddot": 0,
        "tle_line1": "1 30649U 99025APG 25338.23065674  .00012122  00000+0  46977-2 0  9993",
        "tle_line2": "2 30649  98.8100  73.4459 0051372 195.3840 226.4513 14.29395425969427"
      },
      "geometry": {
        "type": "Point",
        "coordinates": [
          -170.04137171767564,
          -80.22338516691825
        ]
      }
    },
    {
      "type": "Feature",
      "properties": {
        "norad_id": 30650,
        "name": "FENGYUN 1C DEB",
        "group": "fengyun-1c-debris",
        "lat": -17.61919212441962,
        "lon": 22.20994718127765,
        "alt_km": 884.9493700823441,
        "timestamp": "2025-12-04T21:36:16.150700+00:00",
        "meta_object_name": "FENGYUN 1C DEB",
        "meta_object_id": "1999-025APH",
        "meta_epoch": "2025-12-04T01:27:04.626144",
        "meta_mean_motion": 14.13857857,
        "meta_eccentricity": 0.00720087,
        "meta_inclination": 99.2046,
        "meta_ra_of_asc_node": 18.3939,
        "meta_arg_of_pericenter": 213.6301,
        "meta_mean_anomaly": 176.2819,
        "meta_ephemeris_type": 0,
        "meta_classification_type": "U",
        "meta_norad_cat_id": 30650,
        "meta_element_set_no": 999,
        "meta_rev_at_epoch": 96176,
        "meta_bstar": 0.003070229,
        "meta_mean_motion_dot": 5.92e-05,
        "meta_mean_motion_ddot": 0,
        "tle_line1": "1 30650U 99025APH 25338.06047021  .00005920  00000+0  30702-2 0  9999",
        "tle_line2": "2 30650  99.2046  18.3939 0072008 213.6301 176.2819 14.13857857961764"
      },
      "geometry": {
        "type": "Point",
        "coordinates": [
          22.20994718127765,
          -17.61919212441962
        ]
      }
    }
  ]
}